     2.10           N: GPS NAV DATA                         RINEX VERSION / TYPE
RTKCONV-QT 2.4.3 b18                    20160924 145159 UTC PGM / RUN BY / DATE 
log: /home/hylkema/Programs/lawnmower/Test/GPS/test2/PC/Ro  COMMENT             
format: u-blox                                              COMMENT             
                                                            END OF HEADER       
 1 16  9 24 16  0  0.0  .350708141923E-04  .125055521494E-11  .000000000000E+00
     .400000000000E+01 -.581250000000E+02  .446840041253E-08  .207004165302E+01
    -.301189720631E-05  .591689604335E-02  .978633761406E-05  .515370741653E+04
     .576000000000E+06 -.173225998878E-06  .199148841031E+01 -.558793544769E-08
     .965137006767E+00  .193875000000E+03  .554063785175E+00 -.794568811266E-08
     .689314426998E-10  .100000000000E+01  .191500000000E+04  .000000000000E+00
     .240000000000E+01  .000000000000E+00  .512227416039E-08  .400000000000E+01
     .569076000000E+06  .400000000000E+01
11 16  9 24 16  0  0.0 -.665083527565E-03 -.102318153949E-11  .000000000000E+00
     .600000000000E+02 -.845625000000E+02  .604560896674E-08  .150163223715E+01
    -.469759106636E-05  .168270281283E-01  .707805156708E-05  .515368253517E+04
     .576000000000E+06  .745058059692E-08  .160590247226E+01 -.452622771263E-06
     .897703496543E+00  .211218750000E+03  .157666059045E+01 -.880679540981E-08
     .260725145963E-10  .100000000000E+01  .191500000000E+04  .000000000000E+00
     .340000000000E+01  .000000000000E+00 -.121071934700E-07  .600000000000E+02
     .569076000000E+06  .400000000000E+01
22 16  9 24 16  0  0.0  .236588064581E-03 -.102318153949E-10  .000000000000E+00
     .160000000000E+02  .212187500000E+02  .552451583255E-08 -.259648879400E+01
     .105239450932E-05  .743240828160E-02  .812858343124E-05  .515372018623E+04
     .576000000000E+06  .128522515297E-06  .299636428617E+01  .558793544769E-07
     .923481736938E+00  .199312500000E+03 -.186274869496E+01 -.840070706603E-08
     .234295473633E-09  .100000000000E+01  .191500000000E+04  .000000000000E+00
     .240000000000E+01  .000000000000E+00 -.176951289177E-07  .160000000000E+02
     .569076000000E+06  .400000000000E+01
 3 16  9 24 15 59 44.0 -.889152288437E-04 -.204636307899E-11  .000000000000E+00
     .430000000000E+02  .210937500000E+02  .476519848964E-08  .110206968071E+01
     .111199915409E-05  .201751245186E-03  .823102891445E-05  .515361456680E+04
     .575984000000E+06  .465661287308E-07  .303316605609E+01  .204890966415E-07
     .959827181752E+00  .218218750000E+03  .388576957447E+00 -.813069581897E-08
     .161078138122E-09  .100000000000E+01  .191500000000E+04  .000000000000E+00
     .240000000000E+01  .000000000000E+00  .139698386192E-08  .430000000000E+02
     .569076000000E+06  .400000000000E+01
 8 16  9 24 16  0  0.0 -.330046750605E-04 -.136424205266E-11  .000000000000E+00
     .180000000000E+02 -.426250000000E+02  .466090843126E-08 -.127671493299E+01
    -.230409204960E-05  .176070234738E-02  .475160777569E-05  .515375485039E+04
     .576000000000E+06 -.651925802231E-07  .929751111866E+00 -.577419996262E-07
     .964350120688E+00  .293125000000E+03 -.101776487024E+01 -.830820321287E-08
     .403588239642E-10  .100000000000E+01  .191500000000E+04  .000000000000E+00
     .240000000000E+01  .000000000000E+00  .512227416039E-08  .180000000000E+02
     .569076000000E+06  .400000000000E+01
14 16  9 24 16  0  0.0 -.367122702301E-04 -.193267624127E-11  .000000000000E+00
     .360000000000E+02  .500000000000E+00  .452447417680E-08 -.254567999016E+01
     .132247805595E-06  .876772927586E-02  .709854066372E-05  .515358289719E+04
     .576000000000E+06  .409781932831E-07 -.212718847922E+01 -.875443220139E-07
     .963214058006E+00  .245218750000E+03 -.194514229658E+01 -.789568602987E-08
    -.253224833545E-09  .100000000000E+01  .191500000000E+04  .000000000000E+00
     .240000000000E+01  .000000000000E+00 -.931322574615E-08  .360000000000E+02
     .569076000000E+06  .400000000000E+01
32 16  9 24 15 59 44.0 -.127766747028E-03 -.147792889038E-10  .000000000000E+00
     .300000000000E+01  .421875000000E+01  .474055460598E-08 -.164698707530E+01
     .232830643654E-06  .650802045129E-03  .705756247044E-05  .515364227867E+04
     .575984000000E+06  .558793544769E-07 -.220994070058E+01 -.100582838058E-06
     .959049493038E+00  .247937500000E+03 -.235631744992E+01 -.812712424163E-08
    -.320370487574E-09  .100000000000E+01  .191500000000E+04  .000000000000E+00
     .240000000000E+01  .000000000000E+00  .931322574615E-09  .300000000000E+01
     .569076000000E+06  .400000000000E+01
27 16  9 24 16  0  0.0  .143357086927E-03  .488853402203E-11  .000000000000E+00
     .310000000000E+02 -.465000000000E+02  .446625746612E-08 -.207527390827E+01
    -.260956585407E-05  .382794730831E-02  .468827784061E-05  .515365235138E+04
     .576000000000E+06  .428408384323E-07  .933389652454E+00 -.109896063805E-06
     .972446652501E+00  .295812500000E+03  .342624133156E+00 -.819534136886E-08
     .885751180806E-10  .100000000000E+01  .191500000000E+04  .000000000000E+00
     .240000000000E+01  .000000000000E+00  .186264514923E-08  .310000000000E+02
     .569076000000E+06  .400000000000E+01
17 16  9 24 16  0  0.0 -.202021095902E-03  .568434188608E-12  .000000000000E+00
     .560000000000E+02 -.654687500000E+02  .434196657462E-08 -.209756371078E+01
    -.327266752720E-05  .112004573457E-01  .477954745293E-05  .515374983788E+04
     .576000000000E+06  .121071934700E-06  .983989522336E+00  .745058059692E-07
     .977479671472E+00  .291156250000E+03 -.192187704955E+01 -.799068998717E-08
     .739316509786E-10  .100000000000E+01  .191500000000E+04  .000000000000E+00
     .240000000000E+01  .000000000000E+00 -.107102096081E-07  .560000000000E+02
     .569076000000E+06  .400000000000E+01
28 16  9 24 16  0  0.0  .554407946765E-03  .284217094304E-11  .000000000000E+00
     .750000000000E+02  .542187500000E+02  .398088010535E-08 -.122708276293E+01
     .330619513988E-05  .199004547903E-01  .550597906113E-05  .515363211250E+04
     .576000000000E+06 -.130385160446E-06 -.309308675491E-01  .404193997383E-06
     .989619629858E+00  .293468750000E+03 -.161129823201E+01 -.812569561070E-08
     .276082928534E-09  .100000000000E+01  .191500000000E+04  .000000000000E+00
     .485000000000E+01  .000000000000E+00 -.107102096081E-07  .750000000000E+02
     .569196000000E+06  .400000000000E+01
23 16  9 24 16  0  0.0 -.191052444279E-03 -.136424205266E-11  .000000000000E+00
     .113000000000E+03  .362500000000E+01  .498020744563E-08  .292018351330E+01
    -.111758708954E-07  .111535190372E-01  .684708356857E-05  .515360947990E+04
     .576000000000E+06 -.102445483208E-06 -.220781855212E+01 -.108033418655E-06
     .945397209440E+00  .237687500000E+03 -.252943644415E+01 -.812926718804E-08
    -.306441335940E-09  .100000000000E+01  .191500000000E+04  .000000000000E+00
     .240000000000E+01  .000000000000E+00 -.200234353542E-07  .113000000000E+03
     .569616000000E+06  .400000000000E+01
31 16  9 24 16  0  0.0  .246194191277E-03 -.216004991671E-11  .000000000000E+00
     .470000000000E+02  .281875000000E+02  .407624122038E-08  .124442522374E+01
     .164285302162E-05  .832330738194E-02  .923871994019E-05  .515355910110E+04
     .576000000000E+06  .134110450745E-06 -.112320375308E+01  .175088644028E-06
     .969621773782E+00  .202968750000E+03 -.379396554018E+00 -.781532553968E-08
    -.204294223960E-09  .100000000000E+01  .191500000000E+04  .000000000000E+00
     .240000000000E+01  .000000000000E+00 -.135041773319E-07  .470000000000E+02
     .570966000000E+06  .400000000000E+01
19 16  9 24 15 59 44.0 -.522638205439E-03  .568434188608E-12  .000000000000E+00
     .300000000000E+01 -.667187500000E+02  .447732935588E-08  .102701280636E+01
    -.339560210705E-05  .105031449348E-01  .561773777008E-05  .515363073158E+04
     .575984000000E+06 -.104308128357E-06  .103245091174E+01  .135973095894E-06
     .974601574719E+00  .280843750000E+03  .867229413460E+00 -.832784688825E-08
    -.148934775160E-09  .100000000000E+01  .191500000000E+04  .000000000000E+00
     .240000000000E+01  .000000000000E+00 -.149011611938E-07  .300000000000E+01
     .570996000000E+06  .400000000000E+01
